[{"OBJECT_NAME":"IRIDIUM 173","OBJECT_ID":"2019-002D","EPOCH":"2026-04-27T06:08:10.931712","MEAN_MOTION":14.34217899,"ECCENTRICITY":0.0002219,"INCLINATION":86.4013,"RA_OF_ASC_NODE":14.8488,"ARG_OF_PERICENTER":88.4136,"MEAN_ANOMALY":271.7314,"EPHEMERIS_TYPE":0,"CLASSIFICATION_TYPE":"U","NORAD_CAT_ID":43925,"ELEMENT_SET_NO":999,"REV_AT_EPOCH":38165,"BSTAR":1.4239e-5,"MEAN_MOTION_DOT":6.0e-7,"MEAN_MOTION_DDOT":0},{"OBJECT_NAME":"IRIDIUM 169","OBJECT_ID":"2019-002E","EPOCH":"2026-04-27T08:05:53.121696","MEAN_MOTION":14.38608998,"ECCENTRICITY":0.0002836,"INCLINATION":86.4244,"RA_OF_ASC_NODE":46.4421,"ARG_OF_PERICENTER":92.3239,"MEAN_ANOMALY":267.8284,"EPHEMERIS_TYPE":0,"CLASSIFICATION_TYPE":"U","NORAD_CAT_ID":43926,"ELEMENT_SET_NO":999,"REV_AT_EPOCH":38291,"BSTAR":9.5995e-5,"MEAN_MOTION_DOT":3.14e-6,"MEAN_MOTION_DDOT":0},{"OBJECT_NAME":"IRIDIUM 172","OBJECT_ID":"2019-002F","EPOCH":"2026-04-27T11:00:26.591040","MEAN_MOTION":14.34219963,"ECCENTRICITY":0.0002097,"INCLINATION":86.4012,"RA_OF_ASC_NODE":14.7718,"ARG_OF_PERICENTER":85.3834,"MEAN_ANOMALY":274.7602,"EPHEMERIS_TYPE":0,"CLASSIFICATION_TYPE":"U","NORAD_CAT_ID":43927,"ELEMENT_SET_NO":999,"REV_AT_EPOCH":38169,"BSTAR":7.6751e-5,"MEAN_MOTION_DOT":2.35e-6,"MEAN_MOTION_DDOT":0},{"OBJECT_NAME":"IRIDIUM 175","OBJECT_ID":"2019-002G","EPOCH":"2026-04-27T06:13:51.176640","MEAN_MOTION":14.43590445,"ECCENTRICITY":0.0004786,"INCLINATION":86.4488,"RA_OF_ASC_NODE":311.8247,"ARG_OF_PERICENTER":54.9512,"MEAN_ANOMALY":305.2137,"EPHEMERIS_TYPE":0,"CLASSIFICATION_TYPE":"U","NORAD_CAT_ID":43928,"ELEMENT_SET_NO":999,"REV_AT_EPOCH":39163,"BSTAR":2.6238e-5,"MEAN_MOTION_DOT":1.09e-6,"MEAN_MOTION_DDOT":0},{"OBJECT_NAME":"IRIDIUM 171","OBJECT_ID":"2019-002H","EPOCH":"2026-04-27T10:33:02.952000","MEAN_MOTION":14.3421794,"ECCENTRICITY":0.0002238,"INCLINATION":86.402,"RA_OF_ASC_NODE":15.08,"ARG_OF_PERICENTER":83.1468,"MEAN_ANOMALY":276.9982,"EPHEMERIS_TYPE":0,"CLASSIFICATION_TYPE":"U","NORAD_CAT_ID":43929,"ELEMENT_SET_NO":999,"REV_AT_EPOCH":38168,"BSTAR":-4.5609e-6,"MEAN_MOTION_DOT":7.0e-8,"MEAN_MOTION_DDOT":0},{"OBJECT_NAME":"IRIDIUM 170","OBJECT_ID":"2019-002J","EPOCH":"2026-04-27T11:04:12.933120","MEAN_MOTION":14.72255677,"ECCENTRICITY":0.0002237,"INCLINATION":86.6134,"RA_OF_ASC_NODE":14.7498,"ARG_OF_PERICENTER":84.3049,"MEAN_ANOMALY":275.8423,"EPHEMERIS_TYPE":0,"CLASSIFICATION_TYPE":"U","NORAD_CAT_ID":43930,"ELEMENT_SET_NO":999,"REV_AT_EPOCH":39179,"BSTAR":0.00012409,"MEAN_MOTION_DOT":8.07e-6,"MEAN_MOTION_DDOT":0},{"OBJECT_NAME":"IRIDIUM 167","OBJECT_ID":"2019-002K","EPOCH":"2026-04-27T10:23:54.996288","MEAN_MOTION":14.34217555,"ECCENTRICITY":0.0002373,"INCLINATION":86.401,"RA_OF_ASC_NODE":14.8043,"ARG_OF_PERICENTER":81.7129,"MEAN_ANOMALY":278.4336,"EPHEMERIS_TYPE":0,"CLASSIFICATION_TYPE":"U","NORAD_CAT_ID":43931,"ELEMENT_SET_NO":999,"REV_AT_EPOCH":38168,"BSTAR":-6.8349e-6,"MEAN_MOTION_DOT":1.0e-8,"MEAN_MOTION_DDOT":0},{"OBJECT_NAME":"IRIDIUM 181","OBJECT_ID":"2023-068S","EPOCH":"2026-04-27T08:34:34.106016","MEAN_MOTION":14.43310894,"ECCENTRICITY":0.0002127,"INCLINATION":86.4477,"RA_OF_ASC_NODE":78.035,"ARG_OF_PERICENTER":80.556,"MEAN_ANOMALY":279.5882,"EPHEMERIS_TYPE":0,"CLASSIFICATION_TYPE":"U","NORAD_CAT_ID":56726,"ELEMENT_SET_NO":999,"REV_AT_EPOCH":15510,"BSTAR":0.00010253,"MEAN_MOTION_DOT":3.65e-6,"MEAN_MOTION_DDOT":0},{"OBJECT_NAME":"IRIDIUM 177","OBJECT_ID":"2023-068T","EPOCH":"2026-04-27T01:56:08.952288","MEAN_MOTION":14.80236559,"ECCENTRICITY":0.00022929,"INCLINATION":86.1993,"RA_OF_ASC_NODE":353.0665,"ARG_OF_PERICENTER":92.4842,"MEAN_ANOMALY":267.6642,"EPHEMERIS_TYPE":0,"CLASSIFICATION_TYPE":"U","NORAD_CAT_ID":56727,"ELEMENT_SET_NO":999,"REV_AT_EPOCH":15880,"BSTAR":0.00012849232,"MEAN_MOTION_DOT":1.003e-5,"MEAN_MOTION_DDOT":0},{"OBJECT_NAME":"IRIDIUM 174","OBJECT_ID":"2023-068U","EPOCH":"2026-04-27T04:14:55.092192","MEAN_MOTION":14.72254017,"ECCENTRICITY":0.00023675,"INCLINATION":86.6143,"RA_OF_ASC_NODE":15.0105,"ARG_OF_PERICENTER":90.4874,"MEAN_ANOMALY":269.6615,"EPHEMERIS_TYPE":0,"CLASSIFICATION_TYPE":"U","NORAD_CAT_ID":56728,"ELEMENT_SET_NO":999,"REV_AT_EPOCH":15851,"BSTAR":7.2463107e-5,"MEAN_MOTION_DOT":4.82e-6,"MEAN_MOTION_DDOT":0},{"OBJECT_NAME":"IRIDIUM 178","OBJECT_ID":"2023-068V","EPOCH":"2026-04-27T08:09:41.896800","MEAN_MOTION":14.80235461,"ECCENTRICITY":0.000247,"INCLINATION":86.6558,"RA_OF_ASC_NODE":46.5994,"ARG_OF_PERICENTER":79.8989,"MEAN_ANOMALY":280.2512,"EPHEMERIS_TYPE":0,"CLASSIFICATION_TYPE":"U","NORAD_CAT_ID":56729,"ELEMENT_SET_NO":999,"REV_AT_EPOCH":15884,"BSTAR":0.00016256,"MEAN_MOTION_DOT":1.261e-5,"MEAN_MOTION_DDOT":0},{"OBJECT_NAME":"IRIDIUM 179","OBJECT_ID":"2023-068W","EPOCH":"2026-04-27T08:01:57.781056","MEAN_MOTION":14.80238251,"ECCENTRICITY":0.0002854,"INCLINATION":86.6787,"RA_OF_ASC_NODE":55.4314,"ARG_OF_PERICENTER":81.6573,"MEAN_ANOMALY":278.4972,"EPHEMERIS_TYPE":0,"CLASSIFICATION_TYPE":"U","NORAD_CAT_ID":56730,"ELEMENT_SET_NO":999,"REV_AT_EPOCH":15884,"BSTAR":0.0001584,"MEAN_MOTION_DOT":1.23e-5,"MEAN_MOTION_DDOT":0}]
