IRIDIUM 173             
1 43925U 19002D   26117.25568208  .00000060  00000+0  14239-4 0  9996
2 43925  86.4013  14.8488 0002219  88.4136 271.7314 14.34217899381650
IRIDIUM 169             
1 43926U 19002E   26117.33742039  .00000314  00000+0  95995-4 0  9992
2 43926  86.4244  46.4421 0002836  92.3239 267.8284 14.38608998382918
IRIDIUM 172             
1 43927U 19002F   26117.45864110  .00000235  00000+0  76751-4 0  9992
2 43927  86.4012  14.7718 0002097  85.3834 274.7602 14.34219963381692
IRIDIUM 175             
1 43928U 19002G   26117.25962010  .00000109  00000+0  26238-4 0  9994
2 43928  86.4488 311.8247 0004786  54.9512 305.2137 14.43590445391635
IRIDIUM 171             
1 43929U 19002H   26117.43961750  .00000007  00000+0 -45609-5 0  9997
2 43929  86.4020  15.0800 0002238  83.1468 276.9982 14.34217940381682
IRIDIUM 170             
1 43930U 19002J   26117.46126080  .00000807  00000+0  12409-3 0  9998
2 43930  86.6134  14.7498 0002237  84.3049 275.8423 14.72255677391790
IRIDIUM 167             
1 43931U 19002K   26117.43327542  .00000001  00000+0 -68349-5 0  9995
2 43931  86.4010  14.8043 0002373  81.7129 278.4336 14.34217555381680
IRIDIUM 181             
1 56726U 23068S   26117.35733919  .00000365  00000+0  10253-3 0  9999
2 56726  86.4477  78.0350 0002127  80.5560 279.5882 14.43310894155103
IRIDIUM 177             
1 56727U 23068T   26117.08065917  .00001003  00000+0  12849-3 0  9999
2 56727  86.1993 353.0665 0002292  92.4842 267.6642 14.80236559158805
IRIDIUM 174             
1 56728U 23068U   26117.17702653  .00000482  00000+0  72463-4 0  9994
2 56728  86.6143  15.0105 0002367  90.4874 269.6615 14.72254017158518
IRIDIUM 178             
1 56729U 23068V   26117.34006825  .00001261  00000+0  16256-3 0  9995
2 56729  86.6558  46.5994 0002470  79.8989 280.2512 14.80235461158849
IRIDIUM 179             
1 56730U 23068W   26117.33469654  .00001230  00000+0  15840-3 0  9993
2 56730  86.6787  55.4314 0002854  81.6573 278.4972 14.80238251158845
